FRAM2
1 63427U 25066A   25091.64578502  .00006574  00000+0  13585-3 0  9991
2 63427  90.0015 318.4993 0004442  78.8825   8.2170 15.45675476    84
